{"generatedAt":"2026-03-27T13:29:45.622585Z","satellites":[{"name":"STARLINK-5205","tle1":"1 54202U 22141AX  26086.25216784  .00000412  00000+0  43949-4 0  9999","tle2":"2 54202  53.2170 274.9654 0001333  96.4134 263.7010 15.08844999188651"},{"name":"STARLINK-5247","tle1":"1 54203U 22141AY  26085.93203278  .00001475  00000+0  11073-3 0  9990","tle2":"2 54203  53.2189 276.5209 0001234  84.3932 275.7200 15.08842842188602"},{"name":"STARLINK-5241","tle1":"1 54204U 22141AZ  26086.24111596  .00000645  00000+0  58580-4 0  9990","tle2":"2 54204  53.2168 274.8979 0001167  89.2357 270.8769 15.08841588188652"},{"name":"STARLINK-5249","tle1":"1 54205U 22141BA  26086.24849146  .00000994  00000+0  80528-4 0  9994","tle2":"2 54205  53.2166 274.9430 0001228  80.3509 279.7622 15.08832479188658"},{"name":"STARLINK-5264","tle1":"1 54206U 22141BB  26085.86348650  .00002038  00000+0  14609-3 0  9993","tle2":"2 54206  53.2153 241.8605 0000927  87.8336 272.2763 15.08840468189086"},{"name":"STARLINK-5262","tle1":"1 54207U 22141BC  26086.24479908  .00000457  00000+0  46782-4 0  9999","tle2":"2 54207  53.2167 274.9210 0001282  87.3115 272.8024 15.08840359188653"},{"name":"STARLINK-5255","tle1":"1 54208U 22141BD  26086.14963809 -.00000197  00000+0  57431-5 0  9993","tle2":"2 54208  53.2184 250.7876 0001560  92.2040 267.9131 15.08833092188980"},{"name":"STARLINK-5259","tle1":"1 54209U 22141BE  26086.18316440  .00000242  00000+0  33331-4 0  9993","tle2":"2 54209  53.2177 265.2507 0001678  87.0787 273.0397 15.08838710188787"},{"name":"STARLINK-5464","tle1":"1 54758U 22175A   26086.02545619 -.00003201  00000+0 -18307-3 0  9999","tle2":"2 54758  53.2196 321.4935 0001657  90.2433 269.8749 15.08846313182605"},{"name":"STARLINK-5215","tle1":"1 54759U 22175B   26086.02913544  .00005157  00000+0  34183-3 0  9996","tle2":"2 54759  53.2174 321.5086 0001158 114.4400 245.6713 15.08841021182603"},{"name":"STARLINK-5220","tle1":"1 54760U 22175C   26085.96059210 -.00000692  00000+0 -25352-4 0  9991","tle2":"2 54760  53.2183 326.7815 0001704  78.6404 281.4780 15.08842827182522"},{"name":"STARLINK-5202","tle1":"1 54761U 22175D   26085.89803630  .00000550  00000+0  52638-4 0  9995","tle2":"2 54761  53.2184 327.0988 0001498  94.3991 265.7173 15.08839278182511"},{"name":"STARLINK-5214","tle1":"1 54762U 22175E   26085.94952367 -.00002823  00000+0 -15936-3 0  9990","tle2":"2 54762  53.2170 326.7117 0001295  92.2700 267.8440 15.08835861182522"},{"name":"STARLINK-5191","tle1":"1 54763U 22175F   26085.95690732 -.00000231  00000+0  35910-5 0  9993","tle2":"2 54763  53.2183 326.7543 0001330  91.8378 268.2766 15.08840098182520"},{"name":"STARLINK-5458","tle1":"1 54764U 22175G   26086.06823575  .00000331  00000+0  38880-4 0  9998","tle2":"2 54764  53.2191 326.0364 0001467  88.6872 271.4288 15.08845315182542"},{"name":"STARLINK-5471","tle1":"1 54766U 22175J   26086.07464723 -.00000774  00000+0 -30523-4 0  9996","tle2":"2 54766  53.2194 326.0722 0001603  99.0594 261.0580 15.08841484182547"},{"name":"STARLINK-5472","tle1":"1 54767U 22175K   26086.07097390 -.00000329  00000+0 -25855-5 0  9998","tle2":"2 54767  53.2181 326.0482 0001522 102.0156 258.1007 15.08836932182549"},{"name":"STARLINK-5444","tle1":"1 54768U 22175L   26085.64463250  .00001748  00000+0  12784-3 0  9992","tle2":"2 54768  53.2164 313.3955 0001217  80.7470 279.3659 15.08848157182682"},{"name":"STARLINK-5448","tle1":"1 54770U 22175N   26085.89020956  .00001093  00000+0  86733-4 0  9993","tle2":"2 54770  53.2189 312.0885 0001610  98.8342 261.2833 15.08844512182725"},{"name":"STARLINK-5451","tle1":"1 54771U 22175P   26086.05484280  .00000569  00000+0  53850-4 0  9998","tle2":"2 54771  53.2194 320.9666 0001610 107.7600 252.3568 15.08845203182616"},{"name":"STARLINK-5452","tle1":"1 54772U 22175Q   26086.01900596 -.00000095  00000+0  12102-4 0  9998","tle2":"2 54772  53.2183 311.4710 0001374  81.5271 278.5877 15.08842146182740"},{"name":"STARLINK-5453","tle1":"1 54773U 22175R   26086.06359046  .00002104  00000+0  15019-3 0  9993","tle2":"2 54773  53.2181 326.0034 0001510  86.9949 273.1216 15.08850701182545"},{"name":"STARLINK-5454","tle1":"1 54774U 22175S   26085.64358804  .00000210  00000+0  31260-4 0  9991","tle2":"2 54774  53.2157 312.6942 0001472  85.6543 274.4617 15.08842398182699"},{"name":"STARLINK-5465","tle1":"1 54775U 22175T   26086.05991054  .00001020  00000+0  82177-4 0  9991","tle2":"2 54775  53.2193 325.9817 0001566  94.4883 265.6288 15.08844832182542"},{"name":"STARLINK-5470","tle1":"1 54776U 22175U   26086.03780166  .00002668  00000+0  18574-3 0  9998","tle2":"2 54776  53.2193 325.8465 0001316  87.0793 273.0350 15.08825330182547"},{"name":"STARLINK-5468","tle1":"1 54777U 22175V   26086.05622895  .00004026  00000+0  27082-3 0  9999","tle2":"2 54777  53.2198 325.9579 0001193  77.4776 282.6350 15.08849862182549"},{"name":"STARLINK-5450","tle1":"1 54778U 22175W   26086.01163675  .00001474  00000+0  11063-3 0  9998","tle2":"2 54778  53.2184 311.4255 0001072  95.6324 264.4791 15.08848022182749"},{"name":"STARLINK-5447","tle1":"1 54779U 22175X   26085.94908337 -.00000340  00000+0 -32676-5 0  9990","tle2":"2 54779  53.2190 311.7459 0001341  98.2181 261.8963 15.08839458182739"},{"name":"STARLINK-5449","tle1":"1 54780U 22175Y   26085.99689891  .00000623  00000+0  57228-4 0  9999","tle2":"2 54780  53.2181 311.3277 0001660  85.9138 274.2044 15.08839860182740"},{"name":"STARLINK-5443","tle1":"1 54781U 22175Z   26086.00795242  .00000451  00000+0  46438-4 0  9991","tle2":"2 54781  53.2185 311.3955 0001451  90.5062 269.6096 15.08840964182746"},{"name":"STARLINK-5439","tle1":"1 54783U 22175AB  26086.00427847  .00000455  00000+0  46665-4 0  9992","tle2":"2 54783  53.2187 311.3772 0001402  87.9594 272.1559 15.08840500182742"},{"name":"STARLINK-5442","tle1":"1 54784U 22175AC  26085.98630077 -.00000093  00000+0  12253-4 0  9995","tle2":"2 54784  53.2188 326.2347 0001530  81.8919 278.2247 15.08846249182537"},{"name":"STARLINK-5440","tle1":"1 54785U 22175AD  26085.91962112  .00002005  00000+0  14404-3 0  9990","tle2":"2 54785  53.2168 271.6417 0001079  75.6943 284.4169 15.08827996183297"},{"name":"STARLINK-5441","tle1":"1 54787U 22175AF  26086.04885274 -.00000668  00000+0 -23893-4 0  9998","tle2":"2 54787  53.2180 325.9139 0001096  80.1332 279.9784 15.08845887182547"},{"name":"STARLINK-5399","tle1":"1 54788U 22175AG  26085.33081270 -.00000405  00000+0 -73675-5 0  9997","tle2":"2 54788  53.2183 314.2886 0001422  89.9642 270.1514 15.08835296182643"},{"name":"STARLINK-5446","tle1":"1 54789U 22175AH  26085.33033943  .00001492  00000+0  11182-3 0  9990","tle2":"2 54789  53.2167 299.1866 0002058  97.8537 262.2689 15.08843008182850"},{"name":"STARLINK-5445","tle1":"1 54790U 22175AJ  26085.98584594 -.00000398  00000+0 -68920-5 0  9996","tle2":"2 54790  53.2183 311.2689 0001630  84.3925 275.7253 15.08835287182740"},{"name":"STARLINK-5425","tle1":"1 54791U 22175AK  26086.00058368 -.00000482  00000+0 -12213-4 0  9993","tle2":"2 54791  53.2195 311.3547 0001559  89.2385 270.8786 15.08839458182743"},{"name":"STARLINK-5431","tle1":"1 54792U 22175AL  26086.04150926 -.00001801  00000+0 -95112-4 0  9996","tle2":"2 54792  53.2181 325.8658 0001282  86.4117 273.7022 15.08822787182547"},{"name":"STARLINK-5433","tle1":"1 54793U 22175AM  26086.00150763  .00002610  00000+0  18196-3 0  9995","tle2":"2 54793  53.2171 301.4188 0001678  84.8614 275.2570 15.08852587182881"},{"name":"STARLINK-5436","tle1":"1 54795U 22175AP  26086.05577129 -.00000172  00000+0  73035-5 0  9998","tle2":"2 54795  53.2168 310.9943 0001444  95.0617 265.0541 15.08837088182751"},{"name":"STARLINK-5415","tle1":"1 54796U 22175AQ  26086.04839898 -.00000413  00000+0 -78608-5 0  9992","tle2":"2 54796  53.2190 310.9430 0001339  95.4091 264.7054 15.08834689182750"},{"name":"STARLINK-5435","tle1":"1 54797U 22175AR  26086.06086571  .00001695  00000+0  12453-3 0  9992","tle2":"2 54797  53.2170 325.9837 0001690  89.8769 270.2416 15.08846744182541"},{"name":"STARLINK-5420","tle1":"1 54798U 22175AS  26085.97940183 -.00000071  00000+0  13660-4 0  9990","tle2":"2 54798  53.2180 301.2696 0001452  84.7272 275.3886 15.08839131182888"},{"name":"STARLINK-5421","tle1":"1 54799U 22175AT  26085.99782285  .00000999  00000+0  80815-4 0  9994","tle2":"2 54799  53.2186 301.3875 0001465  86.3706 273.7454 15.08843004182886"},{"name":"STARLINK-5428","tle1":"1 54800U 22175AU  26085.92097230 -.00007338  00000+0 -44302-3 0  9995","tle2":"2 54800  53.2185 316.5408 0001295  83.3377 276.7763 15.08874233182660"},{"name":"STARLINK-5429","tle1":"1 54801U 22175AV  26085.90163988 -.00000247  00000+0  26083-5 0  9997","tle2":"2 54801  53.2203 326.4145 0001654  89.9184 270.1998 15.08836512182528"},{"name":"STARLINK-5426","tle1":"1 54802U 22175AW  26086.22126085  .00015614  00000+0  99525-3 0  9993","tle2":"2 54802  53.2188 269.8757 0002530  73.7104 286.4167 15.08902859183344"},{"name":"STARLINK-5430","tle1":"1 54803U 22175AX  26086.04517250 -.00000537  00000+0 -15627-4 0  9994","tle2":"2 54803  53.2186 325.8729 0001372 101.2070 258.9076 15.08835309182546"},{"name":"STARLINK-5422","tle1":"1 54804U 22175AY  26086.02628818  .00002654  00000+0  18473-3 0  9997","tle2":"2 54804  53.2172 310.8139 0001372  82.9468 277.1680 15.08851517182753"},{"name":"STARLINK-5417","tle1":"1 54805U 22175AZ  26085.91224376  .00001443  00000+0  10875-3 0  9999","tle2":"2 54805  53.2173 311.5189 0001516  80.3086 279.8077 15.08834392182735"},{"name":"STARLINK-5412","tle1":"1 54806U 22175BA  26085.90117718 -.00000527  00000+0 -15049-4 0  9993","tle2":"2 54806  53.2184 311.4491 0001394  93.7735 266.3416 15.08842538182735"},{"name":"STARLINK-5410","tle1":"1 54807U 22175BB  26086.03733893  .00001565  00000+0  11640-3 0  9990","tle2":"2 54807  53.2181 310.8771 0001053  88.1515 271.9598 15.08843860182757"},{"name":"STARLINK-5413","tle1":"1 54808U 22175BC  26085.94494891  .00000110  00000+0  25043-4 0  9990","tle2":"2 54808  53.2172 296.8321 0001704  97.3017 262.8169 15.08835386182942"}]}